NIMIQ 5                 
1 35873U 09050A   24098.92460775 -.00000265  00000+0  00000+0 0  9995
2 35873   0.0540  87.1186 0002737 286.9899  82.7195  1.00271574 53320
INTELSAT 30 (IS-30)     
1 40271U 14062A   24098.92016962 -.00000159  00000+0  00000+0 0  9999
2 40271   0.0139 228.3998 0001024 105.2293  99.2511  1.00268649 34560
SXM-8                   
1 48838U 21049A   24098.92217112 -.00000213  00000+0  00000+0 0  9990
2 48838   0.0107 230.5038 0001558 117.4370  95.4739  1.00271686 10575
VIASAT-3                
1 56370U 23060A   24098.92138792 -.00000194  00000+0  00000+0 0  9999
2 56370   0.0194 131.8642 0000398 214.0992  93.5075  1.00272508  3411
