<?xml version="1.0" encoding="utf-8"?>
<ndm xmlns:xsi="http://www.w3.org/2001/XMLSchema-instance" xsi:noNamespaceSchemaLocation="https://sanaregistry.org/r/ndmxml_unqualified/ndmxml-3.0.0-master-3.0.xsd"><omm id="CCSDS_OMM_VERS" version="3.0"><header><COMMENT>GENERATED VIA SPACE-TRACK.ORG API</COMMENT><CREATION_DATE>2024-04-08T04:14:55</CREATION_DATE><ORIGINATOR>18 SPCS</ORIGINATOR></header><body><segment><metadata><OBJECT_NAME>INTELSAT 30</OBJECT_NAME><OBJECT_ID>2014-062A</OBJECT_ID><CENTER_NAME>EARTH</CENTER_NAME><REF_FRAME>TEME</REF_FRAME><TIME_SYSTEM>UTC</TIME_SYSTEM><MEAN_ELEMENT_THEORY>SGP4</MEAN_ELEMENT_THEORY></metadata><data><meanElements><EPOCH>2024-04-07T22:05:02.655168</EPOCH><MEAN_MOTION>1.00268649</MEAN_MOTION><ECCENTRICITY>0.00010240</ECCENTRICITY><INCLINATION>0.0139</INCLINATION><RA_OF_ASC_NODE>228.3998</RA_OF_ASC_NODE><ARG_OF_PERICENTER>105.2293</ARG_OF_PERICENTER><MEAN_ANOMALY>99.2511</MEAN_ANOMALY></meanElements><tleParameters><EPHEMERIS_TYPE>0</EPHEMERIS_TYPE><CLASSIFICATION_TYPE>U</CLASSIFICATION_TYPE><NORAD_CAT_ID>40271</NORAD_CAT_ID><ELEMENT_SET_NO>999</ELEMENT_SET_NO><REV_AT_EPOCH>3456</REV_AT_EPOCH><BSTAR>0.00000000000000</BSTAR><MEAN_MOTION_DOT>-0.00000159</MEAN_MOTION_DOT><MEAN_MOTION_DDOT>0.0000000000000</MEAN_MOTION_DDOT></tleParameters><userDefinedParameters><USER_DEFINED parameter="SEMIMAJOR_AXIS">42165.611</USER_DEFINED><USER_DEFINED parameter="PERIOD">1436.142</USER_DEFINED><USER_DEFINED parameter="APOAPSIS">35791.794</USER_DEFINED><USER_DEFINED parameter="PERIAPSIS">35783.158</USER_DEFINED><USER_DEFINED parameter="OBJECT_TYPE">PAYLOAD</USER_DEFINED><USER_DEFINED parameter="RCS_SIZE">LARGE</USER_DEFINED><USER_DEFINED parameter="COUNTRY_CODE">ITSO</USER_DEFINED><USER_DEFINED parameter="LAUNCH_DATE">2014-10-16</USER_DEFINED><USER_DEFINED parameter="SITE">FRGUI</USER_DEFINED><USER_DEFINED parameter="DECAY_DATE"/><USER_DEFINED parameter="FILE">4268432</USER_DEFINED><USER_DEFINED parameter="GP_ID">253980023</USER_DEFINED></userDefinedParameters></data></segment></body></omm><omm id="CCSDS_OMM_VERS" version="3.0"><header><COMMENT>GENERATED VIA SPACE-TRACK.ORG API</COMMENT><CREATION_DATE>2024-04-08T04:14:55</CREATION_DATE><ORIGINATOR>18 SPCS</ORIGINATOR></header><body><segment><metadata><OBJECT_NAME>VIASAT 3</OBJECT_NAME><OBJECT_ID>2023-060A</OBJECT_ID><CENTER_NAME>EARTH</CENTER_NAME><REF_FRAME>TEME</REF_FRAME><TIME_SYSTEM>UTC</TIME_SYSTEM><MEAN_ELEMENT_THEORY>SGP4</MEAN_ELEMENT_THEORY></metadata><data><meanElements><EPOCH>2024-04-07T22:06:47.916288</EPOCH><MEAN_MOTION>1.00272508</MEAN_MOTION><ECCENTRICITY>0.00003980</ECCENTRICITY><INCLINATION>0.0194</INCLINATION><RA_OF_ASC_NODE>131.8642</RA_OF_ASC_NODE><ARG_OF_PERICENTER>214.0992</ARG_OF_PERICENTER><MEAN_ANOMALY>93.5075</MEAN_ANOMALY></meanElements><tleParameters><EPHEMERIS_TYPE>0</EPHEMERIS_TYPE><CLASSIFICATION_TYPE>U</CLASSIFICATION_TYPE><NORAD_CAT_ID>56370</NORAD_CAT_ID><ELEMENT_SET_NO>999</ELEMENT_SET_NO><REV_AT_EPOCH>341</REV_AT_EPOCH><BSTAR>0.00000000000000</BSTAR><MEAN_MOTION_DOT>-0.00000194</MEAN_MOTION_DOT><MEAN_MOTION_DDOT>0.0000000000000</MEAN_MOTION_DDOT></tleParameters><userDefinedParameters><USER_DEFINED parameter="SEMIMAJOR_AXIS">42164.529</USER_DEFINED><USER_DEFINED parameter="PERIOD">1436.087</USER_DEFINED><USER_DEFINED parameter="APOAPSIS">35788.072</USER_DEFINED><USER_DEFINED parameter="PERIAPSIS">35784.716</USER_DEFINED><USER_DEFINED parameter="OBJECT_TYPE">PAYLOAD</USER_DEFINED><USER_DEFINED parameter="RCS_SIZE">LARGE</USER_DEFINED><USER_DEFINED parameter="COUNTRY_CODE">US</USER_DEFINED><USER_DEFINED parameter="LAUNCH_DATE">2023-05-01</USER_DEFINED><USER_DEFINED parameter="SITE">AFETR</USER_DEFINED><USER_DEFINED parameter="DECAY_DATE"/><USER_DEFINED parameter="FILE">4268432</USER_DEFINED><USER_DEFINED parameter="GP_ID">253990773</USER_DEFINED></userDefinedParameters></data></segment></body></omm><omm id="CCSDS_OMM_VERS" version="3.0"><header><COMMENT>GENERATED VIA SPACE-TRACK.ORG API</COMMENT><CREATION_DATE>2024-04-08T04:14:55</CREATION_DATE><ORIGINATOR>18 SPCS</ORIGINATOR></header><body><segment><metadata><OBJECT_NAME>XM-8</OBJECT_NAME><OBJECT_ID>2021-049A</OBJECT_ID><CENTER_NAME>EARTH</CENTER_NAME><REF_FRAME>TEME</REF_FRAME><TIME_SYSTEM>UTC</TIME_SYSTEM><MEAN_ELEMENT_THEORY>SGP4</MEAN_ELEMENT_THEORY></metadata><data><meanElements><EPOCH>2024-04-07T22:07:55.584768</EPOCH><MEAN_MOTION>1.00271686</MEAN_MOTION><ECCENTRICITY>0.00015580</ECCENTRICITY><INCLINATION>0.0107</INCLINATION><RA_OF_ASC_NODE>230.5038</RA_OF_ASC_NODE><ARG_OF_PERICENTER>117.4370</ARG_OF_PERICENTER><MEAN_ANOMALY>95.4739</MEAN_ANOMALY></meanElements><tleParameters><EPHEMERIS_TYPE>0</EPHEMERIS_TYPE><CLASSIFICATION_TYPE>U</CLASSIFICATION_TYPE><NORAD_CAT_ID>48838</NORAD_CAT_ID><ELEMENT_SET_NO>999</ELEMENT_SET_NO><REV_AT_EPOCH>1057</REV_AT_EPOCH><BSTAR>0.00000000000000</BSTAR><MEAN_MOTION_DOT>-0.00000213</MEAN_MOTION_DOT><MEAN_MOTION_DDOT>0.0000000000000</MEAN_MOTION_DDOT></tleParameters><userDefinedParameters><USER_DEFINED parameter="SEMIMAJOR_AXIS">42164.760</USER_DEFINED><USER_DEFINED parameter="PERIOD">1436.098</USER_DEFINED><USER_DEFINED parameter="APOAPSIS">35793.194</USER_DEFINED><USER_DEFINED parameter="PERIAPSIS">35780.055</USER_DEFINED><USER_DEFINED parameter="OBJECT_TYPE">PAYLOAD</USER_DEFINED><USER_DEFINED parameter="RCS_SIZE">LARGE</USER_DEFINED><USER_DEFINED parameter="COUNTRY_CODE">US</USER_DEFINED><USER_DEFINED parameter="LAUNCH_DATE">2021-06-06</USER_DEFINED><USER_DEFINED parameter="SITE">AFETR</USER_DEFINED><USER_DEFINED parameter="DECAY_DATE"/><USER_DEFINED parameter="FILE">4268432</USER_DEFINED><USER_DEFINED parameter="GP_ID">253986425</USER_DEFINED></userDefinedParameters></data></segment></body></omm><omm id="CCSDS_OMM_VERS" version="3.0"><header><COMMENT>GENERATED VIA SPACE-TRACK.ORG API</COMMENT><CREATION_DATE>2024-04-08T04:14:55</CREATION_DATE><ORIGINATOR>18 SPCS</ORIGINATOR></header><body><segment><metadata><OBJECT_NAME>NIMIQ 5</OBJECT_NAME><OBJECT_ID>2009-050A</OBJECT_ID><CENTER_NAME>EARTH</CENTER_NAME><REF_FRAME>TEME</REF_FRAME><TIME_SYSTEM>UTC</TIME_SYSTEM><MEAN_ELEMENT_THEORY>SGP4</MEAN_ELEMENT_THEORY></metadata><data><meanElements><EPOCH>2024-04-07T22:11:26.109600</EPOCH><MEAN_MOTION>1.00271574</MEAN_MOTION><ECCENTRICITY>0.00027370</ECCENTRICITY><INCLINATION>0.0540</INCLINATION><RA_OF_ASC_NODE>87.1186</RA_OF_ASC_NODE><ARG_OF_PERICENTER>286.9899</ARG_OF_PERICENTER><MEAN_ANOMALY>82.7195</MEAN_ANOMALY></meanElements><tleParameters><EPHEMERIS_TYPE>0</EPHEMERIS_TYPE><CLASSIFICATION_TYPE>U</CLASSIFICATION_TYPE><NORAD_CAT_ID>35873</NORAD_CAT_ID><ELEMENT_SET_NO>999</ELEMENT_SET_NO><REV_AT_EPOCH>5332</REV_AT_EPOCH><BSTAR>0.00000000000000</BSTAR><MEAN_MOTION_DOT>-0.00000265</MEAN_MOTION_DOT><MEAN_MOTION_DDOT>0.0000000000000</MEAN_MOTION_DDOT></tleParameters><userDefinedParameters><USER_DEFINED parameter="SEMIMAJOR_AXIS">42164.791</USER_DEFINED><USER_DEFINED parameter="PERIOD">1436.100</USER_DEFINED><USER_DEFINED parameter="APOAPSIS">35798.197</USER_DEFINED><USER_DEFINED parameter="PERIAPSIS">35775.116</USER_DEFINED><USER_DEFINED parameter="OBJECT_TYPE">PAYLOAD</USER_DEFINED><USER_DEFINED parameter="RCS_SIZE">LARGE</USER_DEFINED><USER_DEFINED parameter="COUNTRY_CODE">CA</USER_DEFINED><USER_DEFINED parameter="LAUNCH_DATE">2009-09-17</USER_DEFINED><USER_DEFINED parameter="SITE">TTMTR</USER_DEFINED><USER_DEFINED parameter="DECAY_DATE"/><USER_DEFINED parameter="FILE">4268432</USER_DEFINED><USER_DEFINED parameter="GP_ID">253977678</USER_DEFINED></userDefinedParameters></data></segment></body></omm></ndm>
